STARLINK-35470          
1 66430U 25259J   26068.95229821  .00033236  00000+0  12112-2 0  9997
2 66430  43.0046 272.6763 0001486 275.1198  84.9484 15.27596823 19536
KUIPER-00226            
1 67785U 26030X   26068.62629313  .00046834  00000+0  15530-2 0  9998
2 67785  51.8814 220.1252 0017713  64.2781 296.0030 15.30655594  5078
